ONEWEB-0363             
1 49289U 21090L   25332.40913522  .00000031  00000+0  44955-4 0  9999
2 49289  87.9192 314.4779 0001713  98.2833 261.8495 13.20770521203806
ONEWEB-0364             
1 49290U 21090M   25332.44700643 -.00000021  00000+0 -83533-4 0  9999
2 49290  87.9186 314.4950 0001794  90.1195 270.0144 13.20770175204947
ONEWEB-0365             
1 49291U 21090N   25332.57546281  .00000001  00000+0 -30395-4 0  9995
2 49291  87.9210 344.8677 0001914  89.5601 270.5751 13.19722958199965
ONEWEB-0366             
1 49292U 21090P   25332.56105705 -.00000182  00000+0 -52506-3 0  9995
2 49292  87.8979 329.6909 0001736  90.4167 269.7162 13.14501985201203
ONEWEB-0367             
1 49293U 21090Q   25332.48330727  .00000047  00000+0  82677-4 0  9992
2 49293  87.9194 314.4620 0001951  81.8205 278.3150 13.20769355203335
ONEWEB-0368             
1 49294U 21090R   25332.45648482  .00000079  00000+0  16124-3 0  9998
2 49294  87.9188 314.4985 0002417 102.9468 257.1935 13.20768806204480
ONEWEB-0369             
1 49295U 21090S   25332.57071554 -.00000006  00000+0 -46708-4 0  9996
2 49295  87.9201 344.8973 0001875  91.5841 268.5507 13.19727688199953
ONEWEB-0370             
1 49296U 21090T   25332.64428669 -.00000054  00000+0 -16437-3 0  9996
2 49296  87.9184 314.4360 0001770  76.5657 283.5673 13.20769697203392
